[{"OBJECT_NAME":"TDRS 11","OBJECT_ID":"2013-004A","EPOCH":"2026-04-26T19:35:07.850976","MEAN_MOTION":1.0026458,"ECCENTRICITY":0.0005413,"INCLINATION":3.446,"RA_OF_ASC_NODE":30.3568,"ARG_OF_PERICENTER":1.2318,"MEAN_ANOMALY":302.8404,"EPHEMERIS_TYPE":0,"CLASSIFICATION_TYPE":"U","NORAD_CAT_ID":39070,"ELEMENT_SET_NO":999,"REV_AT_EPOCH":4617,"BSTAR":0,"MEAN_MOTION_DOT":7.0e-7,"MEAN_MOTION_DDOT":0},{"OBJECT_NAME":"TDRS 12","OBJECT_ID":"2014-004A","EPOCH":"2026-04-26T16:47:44.448000","MEAN_MOTION":1.00269546,"ECCENTRICITY":0.0001922,"INCLINATION":3.9286,"RA_OF_ASC_NODE":18.2267,"ARG_OF_PERICENTER":247.059,"MEAN_ANOMALY":160.4429,"EPHEMERIS_TYPE":0,"CLASSIFICATION_TYPE":"U","NORAD_CAT_ID":39504,"ELEMENT_SET_NO":999,"REV_AT_EPOCH":4376,"BSTAR":0,"MEAN_MOTION_DOT":-2.8e-6,"MEAN_MOTION_DDOT":0},{"OBJECT_NAME":"GPM-CORE","OBJECT_ID":"2014-009C","EPOCH":"2026-04-26T19:30:50.258016","MEAN_MOTION":15.44663543,"ECCENTRICITY":0.0012218,"INCLINATION":64.9707,"RA_OF_ASC_NODE":120.2865,"ARG_OF_PERICENTER":260.505,"MEAN_ANOMALY":99.471,"EPHEMERIS_TYPE":0,"CLASSIFICATION_TYPE":"U","NORAD_CAT_ID":39574,"ELEMENT_SET_NO":999,"REV_AT_EPOCH":68987,"BSTAR":0.00016185,"MEAN_MOTION_DOT":7.355e-5,"MEAN_MOTION_DDOT":0},{"OBJECT_NAME":"MMS 1","OBJECT_ID":"2015-011A","EPOCH":"2026-04-26T22:00:00.999072","MEAN_MOTION":0.28339059,"ECCENTRICITY":0.8362004,"INCLINATION":71.4093,"RA_OF_ASC_NODE":349.4904,"ARG_OF_PERICENTER":166.3324,"MEAN_ANOMALY":108.3672,"EPHEMERIS_TYPE":0,"CLASSIFICATION_TYPE":"U","NORAD_CAT_ID":40482,"ELEMENT_SET_NO":999,"REV_AT_EPOCH":135,"BSTAR":0,"MEAN_MOTION_DOT":-5.73e-6,"MEAN_MOTION_DDOT":0},{"OBJECT_NAME":"MMS 2","OBJECT_ID":"2015-011B","EPOCH":"2026-04-26T20:00:01.999008","MEAN_MOTION":0.28337761,"ECCENTRICITY":0.8362674,"INCLINATION":71.4091,"RA_OF_ASC_NODE":349.4933,"ARG_OF_PERICENTER":166.3389,"MEAN_ANOMALY":99.8503,"EPHEMERIS_TYPE":0,"CLASSIFICATION_TYPE":"U","NORAD_CAT_ID":40483,"ELEMENT_SET_NO":999,"REV_AT_EPOCH":135,"BSTAR":0,"MEAN_MOTION_DOT":-5.84e-6,"MEAN_MOTION_DDOT":0},{"OBJECT_NAME":"MMS 3","OBJECT_ID":"2015-011C","EPOCH":"2026-04-26T20:00:01.999008","MEAN_MOTION":0.28336301,"ECCENTRICITY":0.8361791,"INCLINATION":71.4128,"RA_OF_ASC_NODE":349.4975,"ARG_OF_PERICENTER":166.3358,"MEAN_ANOMALY":99.8422,"EPHEMERIS_TYPE":0,"CLASSIFICATION_TYPE":"U","NORAD_CAT_ID":40484,"ELEMENT_SET_NO":999,"REV_AT_EPOCH":135,"BSTAR":0,"MEAN_MOTION_DOT":-5.84e-6,"MEAN_MOTION_DDOT":0},{"OBJECT_NAME":"MMS 4","OBJECT_ID":"2015-011D","EPOCH":"2026-04-26T20:00:01.999008","MEAN_MOTION":0.28337707,"ECCENTRICITY":0.8361459,"INCLINATION":71.4089,"RA_OF_ASC_NODE":349.4933,"ARG_OF_PERICENTER":166.3409,"MEAN_ANOMALY":99.8397,"EPHEMERIS_TYPE":0,"CLASSIFICATION_TYPE":"U","NORAD_CAT_ID":40485,"ELEMENT_SET_NO":999,"REV_AT_EPOCH":135,"BSTAR":0,"MEAN_MOTION_DOT":-5.84e-6,"MEAN_MOTION_DDOT":0},{"OBJECT_NAME":"TDRS 13","OBJECT_ID":"2017-047A","EPOCH":"2026-04-26T19:47:38.565024","MEAN_MOTION":1.00271933,"ECCENTRICITY":0.0012927,"INCLINATION":3.4407,"RA_OF_ASC_NODE":1.4594,"ARG_OF_PERICENTER":98.4221,"MEAN_ANOMALY":40.3722,"EPHEMERIS_TYPE":0,"CLASSIFICATION_TYPE":"U","NORAD_CAT_ID":42915,"ELEMENT_SET_NO":999,"REV_AT_EPOCH":3183,"BSTAR":0,"MEAN_MOTION_DOT":-1.1e-6,"MEAN_MOTION_DDOT":0},{"OBJECT_NAME":"NOAA 20 (JPSS-1)","OBJECT_ID":"2017-073A","EPOCH":"2026-04-26T19:53:10.392864","MEAN_MOTION":14.19547728,"ECCENTRICITY":0.0002094,"INCLINATION":98.7746,"RA_OF_ASC_NODE":56.7544,"ARG_OF_PERICENTER":72.0062,"MEAN_ANOMALY":288.1342,"EPHEMERIS_TYPE":0,"CLASSIFICATION_TYPE":"U","NORAD_CAT_ID":43013,"ELEMENT_SET_NO":999,"REV_AT_EPOCH":43718,"BSTAR":5.0313e-5,"MEAN_MOTION_DOT":6.2e-7,"MEAN_MOTION_DDOT":0}]
