TDRS 11                 
1 39070U 13004A   26116.81606309  .00000070  00000+0  00000+0 0  9991
2 39070   3.4460  30.3568 0005413   1.2318 302.8404  1.00264580 46176
TDRS 12                 
1 39504U 14004A   26116.69982000 -.00000280  00000+0  00000+0 0  9999
2 39504   3.9286  18.2267 0001922 247.0590 160.4429  1.00269546 43767
GPM-CORE                
1 39574U 14009C   26116.81308169  .00007355  00000+0  16185-3 0  9997
2 39574  64.9707 120.2865 0012218 260.5050  99.4710 15.44663543689878
MMS 1                   
1 40482U 15011A   26116.91667823 -.00000573  00000+0  00000+0 0  9998
2 40482  71.4093 349.4904 8362004 166.3324 108.3672  0.28339059  1350
MMS 2                   
1 40483U 15011B   26116.83335647 -.00000584  00000+0  00000+0 0  9998
2 40483  71.4091 349.4933 8362674 166.3389  99.8503  0.28337761  1350
MMS 3                   
1 40484U 15011C   26116.83335647 -.00000584  00000+0  00000+0 0  9999
2 40484  71.4128 349.4975 8361791 166.3358  99.8422  0.28336301  1352
MMS 4                   
1 40485U 15011D   26116.83335647 -.00000584  00000+0  00000+0 0  9990
2 40485  71.4089 349.4933 8361459 166.3409  99.8397  0.28337707  1353
TDRS 13                 
1 42915U 17047A   26116.82475191 -.00000110  00000+0  00000+0 0  9994
2 42915   3.4407   1.4594 0012927  98.4221  40.3722  1.00271933 31830
NOAA 20 (JPSS-1)        
1 43013U 17073A   26116.82859251  .00000062  00000+0  50313-4 0  9998
2 43013  98.7746  56.7544 0002094  72.0062 288.1342 14.19547728437186
